GLOBALSTAR M045         
1 25676U 99019A   25024.23856380 -.00000085  00000+0  73726-4 0  9994
2 25676  51.9996 355.5525 0000356 346.3523  31.9992 12.27055248175728
GLOBALSTAR M019         
1 25677U 99019B   25024.58862867 -.00000071  00000+0  19357-3 0  9994
2 25677  51.9870 114.8147 0001236  71.3967  37.7442 12.13868698167700
GLOBALSTAR M044         
1 25678U 99019C   25024.42960545 -.00000091  00000+0 -10087-3 0  9994
2 25678  51.9982  48.6327 0006772 125.2071  20.1662 11.90248546154203
GLOBALSTAR M042         
1 25679U 99019D   25024.53309787 -.00000075  00000+0  15946-3 0  9992
2 25679  52.0016  96.4921 0002461  15.0521  92.7400 12.22077042167691
GLOBALSTAR M025         
1 25770U 99031A   25024.59643281 -.00000078  00000+0 -30917-3 0  9993
2 25770  51.9809 131.9090 0000957 222.1140 238.7082 11.22558621465582
GLOBALSTAR M049         
1 25771U 99031B   25024.53800011  .00000014  00000+0  27398-2 0  9990
2 25771  51.9854 159.5877 0004514 125.9458 234.1757 11.12111827101440
GLOBALSTAR M047         
1 25772U 99031C   25024.56103141 -.00000106  00000+0 -99850-3 0  9991
2 25772  51.9809 170.2284 0016367  20.6629 339.4835 11.31925924454846
GLOBALSTAR M052         
1 25773U 99031D   25024.62008660 -.00000076  00000+0 -33212-3 0  9995
2 25773  51.9859 270.1023 0001929 317.6657 113.7784 11.15057033462496
